IRIDIUM 170             
1 43930U 19002J   24268.42485712  .00001007  00000+0  15572-3 0  9996
2 43930  86.6045 257.1708 0002618  85.2067 274.9449 14.72260510306450
IRIDIUM 167             
1 43931U 19002K   24268.72665431  .00000004  00000+0 -57985-5 0  9991
2 43931  86.3915 257.0230 0002261  91.5467 268.5988 14.34217592298593
IRIDIUM 181             
1 56726U 23068S   24268.57636866  .00000769  00000+0  22123-3 0  9998
2 56726  86.8626 315.6876 0002416  99.5176 260.6298 14.43581720 71477
IRIDIUM 174             
1 56728U 23068U   24268.72963382  .00001360  00000+0  17562-3 0  9992
2 56728  86.1924 268.1926 0002311  97.2647 262.8836 14.80195765 73108
IRIDIUM 178             
1 56729U 23068V   24268.79155771  .00001136  00000+0  14598-3 0  9992
2 56729  86.5729 290.3637 0002473  93.7716 266.3788 14.80237304 73111
IRIDIUM 179             
1 56730U 23068W   24268.51570690  .00000937  00000+0  11987-3 0  9992
2 56730  86.6740 295.8722 0001839 100.4423 259.7006 14.80237376 73071
